KUIPER-00027            
1 63740U 25088S   25224.41668981 -.00254278  00000+0 -93648-2 0  9992
2 63740  51.8779 308.4378 0001363 149.3632  97.6197 15.28408012 16516
KUIPER-00028            
1 63741U 25088T   25224.25002315 -.00235820  00000+0 -78524-2 0  9996
2 63741  51.8741 308.8469 0002734  80.4216 130.3020 15.31569882 16907
KUIPER-00029            
1 63742U 25088U   25223.54927316  .00015615  00000+0  42632-3 0  9993
2 63742  51.8696 312.8303 0004485 117.8794 242.2647 15.37585074 16321
KUIPER-00030            
1 63743U 25088V   25224.41668981 -.00089125  00000+0 -83919-2 0  9992
2 63743  51.8928 316.3412 0016128 103.6254 267.2289 14.93722868 16639
KUIPER-00031            
1 63744U 25088W   25224.41668981 -.00868227  00000+0 -37124-1 0  9997
2 63744  51.8736 308.8312 0003956 119.9491 298.3286 15.25153412 16451
KUIPER-00032            
1 63745U 25088X   25223.54198983  .00013689  00000+0  49069-3 0  9996
2 63745  51.8723 313.4992 0004950  88.5410 271.6140 15.28996615 17313
KUIPER-00033            
1 63746U 25088Y   25223.60863209  .00004854  00000+0  66495-3 0  9990
2 63746  51.9009 335.5706 0002901 188.2711 171.8204 14.79957812 16497
KUIPER-00034            
1 63747U 25088Z   25224.40081112  .00016434  00000+0  43666-3 0  9997
2 63747  51.8715 308.0663 0001377  94.7275 265.3870 15.38389886 16629
