<?xml version="1.0" encoding="UTF-8"?>
<ndm xmlns:xsi="http://www.w3.org/2001/XMLSchema-instance" xsi:noNamespaceSchemaLocation="https://sanaregistry.org/r/ndmxml_unqualified/ndmxml-2.0.0-master-2.0.xsd">
<omm id="CCSDS_OMM_VERS" version="2.0">
<header><CREATION_DATE/><ORIGINATOR/></header><body><segment><metadata><OBJECT_NAME>KUIPER-00027</OBJECT_NAME><OBJECT_ID>2025-088S</OBJECT_ID><CENTER_NAME>EARTH</CENTER_NAME><REF_FRAME>TEME</REF_FRAME><TIME_SYSTEM>UTC</TIME_SYSTEM><MEAN_ELEMENT_THEORY>SGP4</MEAN_ELEMENT_THEORY></metadata><data><meanElements><EPOCH>2025-08-12T10:00:01.999584</EPOCH><MEAN_MOTION>15.28408012</MEAN_MOTION><ECCENTRICITY>.0001363</ECCENTRICITY><INCLINATION>51.8779</INCLINATION><RA_OF_ASC_NODE>308.4378</RA_OF_ASC_NODE><ARG_OF_PERICENTER>149.3632</ARG_OF_PERICENTER><MEAN_ANOMALY>97.6197</MEAN_ANOMALY></meanElements><tleParameters><EPHEMERIS_TYPE>0</EPHEMERIS_TYPE><CLASSIFICATION_TYPE>U</CLASSIFICATION_TYPE><NORAD_CAT_ID>63740</NORAD_CAT_ID><ELEMENT_SET_NO>999</ELEMENT_SET_NO><REV_AT_EPOCH>1651</REV_AT_EPOCH><BSTAR>-.93648E-2</BSTAR><MEAN_MOTION_DOT>-.254278E-2</MEAN_MOTION_DOT><MEAN_MOTION_DDOT>0</MEAN_MOTION_DDOT></tleParameters></data></segment></body></omm>
<omm id="CCSDS_OMM_VERS" version="2.0">
<header><CREATION_DATE/><ORIGINATOR/></header><body><segment><metadata><OBJECT_NAME>KUIPER-00028</OBJECT_NAME><OBJECT_ID>2025-088T</OBJECT_ID><CENTER_NAME>EARTH</CENTER_NAME><REF_FRAME>TEME</REF_FRAME><TIME_SYSTEM>UTC</TIME_SYSTEM><MEAN_ELEMENT_THEORY>SGP4</MEAN_ELEMENT_THEORY></metadata><data><meanElements><EPOCH>2025-08-12T06:00:02.000160</EPOCH><MEAN_MOTION>15.31569882</MEAN_MOTION><ECCENTRICITY>.0002734</ECCENTRICITY><INCLINATION>51.8741</INCLINATION><RA_OF_ASC_NODE>308.8469</RA_OF_ASC_NODE><ARG_OF_PERICENTER>80.4216</ARG_OF_PERICENTER><MEAN_ANOMALY>130.3020</MEAN_ANOMALY></meanElements><tleParameters><EPHEMERIS_TYPE>0</EPHEMERIS_TYPE><CLASSIFICATION_TYPE>U</CLASSIFICATION_TYPE><NORAD_CAT_ID>63741</NORAD_CAT_ID><ELEMENT_SET_NO>999</ELEMENT_SET_NO><REV_AT_EPOCH>1690</REV_AT_EPOCH><BSTAR>-.78524E-2</BSTAR><MEAN_MOTION_DOT>-.23582E-2</MEAN_MOTION_DOT><MEAN_MOTION_DDOT>0</MEAN_MOTION_DDOT></tleParameters></data></segment></body></omm>
<omm id="CCSDS_OMM_VERS" version="2.0">
<header><CREATION_DATE/><ORIGINATOR/></header><body><segment><metadata><OBJECT_NAME>KUIPER-00029</OBJECT_NAME><OBJECT_ID>2025-088U</OBJECT_ID><CENTER_NAME>EARTH</CENTER_NAME><REF_FRAME>TEME</REF_FRAME><TIME_SYSTEM>UTC</TIME_SYSTEM><MEAN_ELEMENT_THEORY>SGP4</MEAN_ELEMENT_THEORY></metadata><data><meanElements><EPOCH>2025-08-11T13:10:57.201024</EPOCH><MEAN_MOTION>15.37585074</MEAN_MOTION><ECCENTRICITY>.0004485</ECCENTRICITY><INCLINATION>51.8696</INCLINATION><RA_OF_ASC_NODE>312.8303</RA_OF_ASC_NODE><ARG_OF_PERICENTER>117.8794</ARG_OF_PERICENTER><MEAN_ANOMALY>242.2647</MEAN_ANOMALY></meanElements><tleParameters><EPHEMERIS_TYPE>0</EPHEMERIS_TYPE><CLASSIFICATION_TYPE>U</CLASSIFICATION_TYPE><NORAD_CAT_ID>63742</NORAD_CAT_ID><ELEMENT_SET_NO>999</ELEMENT_SET_NO><REV_AT_EPOCH>1632</REV_AT_EPOCH><BSTAR>.42632E-3</BSTAR><MEAN_MOTION_DOT>.15615E-3</MEAN_MOTION_DOT><MEAN_MOTION_DDOT>0</MEAN_MOTION_DDOT></tleParameters></data></segment></body></omm>
<omm id="CCSDS_OMM_VERS" version="2.0">
<header><CREATION_DATE/><ORIGINATOR/></header><body><segment><metadata><OBJECT_NAME>KUIPER-00030</OBJECT_NAME><OBJECT_ID>2025-088V</OBJECT_ID><CENTER_NAME>EARTH</CENTER_NAME><REF_FRAME>TEME</REF_FRAME><TIME_SYSTEM>UTC</TIME_SYSTEM><MEAN_ELEMENT_THEORY>SGP4</MEAN_ELEMENT_THEORY></metadata><data><meanElements><EPOCH>2025-08-12T10:00:01.999584</EPOCH><MEAN_MOTION>14.93722868</MEAN_MOTION><ECCENTRICITY>.0016128</ECCENTRICITY><INCLINATION>51.8928</INCLINATION><RA_OF_ASC_NODE>316.3412</RA_OF_ASC_NODE><ARG_OF_PERICENTER>103.6254</ARG_OF_PERICENTER><MEAN_ANOMALY>267.2289</MEAN_ANOMALY></meanElements><tleParameters><EPHEMERIS_TYPE>0</EPHEMERIS_TYPE><CLASSIFICATION_TYPE>U</CLASSIFICATION_TYPE><NORAD_CAT_ID>63743</NORAD_CAT_ID><ELEMENT_SET_NO>999</ELEMENT_SET_NO><REV_AT_EPOCH>1663</REV_AT_EPOCH><BSTAR>-.83919E-2</BSTAR><MEAN_MOTION_DOT>-.89125E-3</MEAN_MOTION_DOT><MEAN_MOTION_DDOT>0</MEAN_MOTION_DDOT></tleParameters></data></segment></body></omm>
<omm id="CCSDS_OMM_VERS" version="2.0">
<header><CREATION_DATE/><ORIGINATOR/></header><body><segment><metadata><OBJECT_NAME>KUIPER-00031</OBJECT_NAME><OBJECT_ID>2025-088W</OBJECT_ID><CENTER_NAME>EARTH</CENTER_NAME><REF_FRAME>TEME</REF_FRAME><TIME_SYSTEM>UTC</TIME_SYSTEM><MEAN_ELEMENT_THEORY>SGP4</MEAN_ELEMENT_THEORY></metadata><data><meanElements><EPOCH>2025-08-12T10:00:01.999584</EPOCH><MEAN_MOTION>15.25153412</MEAN_MOTION><ECCENTRICITY>.0003956</ECCENTRICITY><INCLINATION>51.8736</INCLINATION><RA_OF_ASC_NODE>308.8312</RA_OF_ASC_NODE><ARG_OF_PERICENTER>119.9491</ARG_OF_PERICENTER><MEAN_ANOMALY>298.3286</MEAN_ANOMALY></meanElements><tleParameters><EPHEMERIS_TYPE>0</EPHEMERIS_TYPE><CLASSIFICATION_TYPE>U</CLASSIFICATION_TYPE><NORAD_CAT_ID>63744</NORAD_CAT_ID><ELEMENT_SET_NO>999</ELEMENT_SET_NO><REV_AT_EPOCH>1645</REV_AT_EPOCH><BSTAR>-.37124E-1</BSTAR><MEAN_MOTION_DOT>-.868227E-2</MEAN_MOTION_DOT><MEAN_MOTION_DDOT>0</MEAN_MOTION_DDOT></tleParameters></data></segment></body></omm>
<omm id="CCSDS_OMM_VERS" version="2.0">
<header><CREATION_DATE/><ORIGINATOR/></header><body><segment><metadata><OBJECT_NAME>KUIPER-00032</OBJECT_NAME><OBJECT_ID>2025-088X</OBJECT_ID><CENTER_NAME>EARTH</CENTER_NAME><REF_FRAME>TEME</REF_FRAME><TIME_SYSTEM>UTC</TIME_SYSTEM><MEAN_ELEMENT_THEORY>SGP4</MEAN_ELEMENT_THEORY></metadata><data><meanElements><EPOCH>2025-08-11T13:00:27.921312</EPOCH><MEAN_MOTION>15.28996615</MEAN_MOTION><ECCENTRICITY>.000495</ECCENTRICITY><INCLINATION>51.8723</INCLINATION><RA_OF_ASC_NODE>313.4992</RA_OF_ASC_NODE><ARG_OF_PERICENTER>88.5410</ARG_OF_PERICENTER><MEAN_ANOMALY>271.6140</MEAN_ANOMALY></meanElements><tleParameters><EPHEMERIS_TYPE>0</EPHEMERIS_TYPE><CLASSIFICATION_TYPE>U</CLASSIFICATION_TYPE><NORAD_CAT_ID>63745</NORAD_CAT_ID><ELEMENT_SET_NO>999</ELEMENT_SET_NO><REV_AT_EPOCH>1731</REV_AT_EPOCH><BSTAR>.49069E-3</BSTAR><MEAN_MOTION_DOT>.13689E-3</MEAN_MOTION_DOT><MEAN_MOTION_DDOT>0</MEAN_MOTION_DDOT></tleParameters></data></segment></body></omm>
<omm id="CCSDS_OMM_VERS" version="2.0">
<header><CREATION_DATE/><ORIGINATOR/></header><body><segment><metadata><OBJECT_NAME>KUIPER-00033</OBJECT_NAME><OBJECT_ID>2025-088Y</OBJECT_ID><CENTER_NAME>EARTH</CENTER_NAME><REF_FRAME>TEME</REF_FRAME><TIME_SYSTEM>UTC</TIME_SYSTEM><MEAN_ELEMENT_THEORY>SGP4</MEAN_ELEMENT_THEORY></metadata><data><meanElements><EPOCH>2025-08-11T14:36:25.812576</EPOCH><MEAN_MOTION>14.79957812</MEAN_MOTION><ECCENTRICITY>.0002901</ECCENTRICITY><INCLINATION>51.9009</INCLINATION><RA_OF_ASC_NODE>335.5706</RA_OF_ASC_NODE><ARG_OF_PERICENTER>188.2711</ARG_OF_PERICENTER><MEAN_ANOMALY>171.8204</MEAN_ANOMALY></meanElements><tleParameters><EPHEMERIS_TYPE>0</EPHEMERIS_TYPE><CLASSIFICATION_TYPE>U</CLASSIFICATION_TYPE><NORAD_CAT_ID>63746</NORAD_CAT_ID><ELEMENT_SET_NO>999</ELEMENT_SET_NO><REV_AT_EPOCH>1649</REV_AT_EPOCH><BSTAR>.66495E-3</BSTAR><MEAN_MOTION_DOT>.4854E-4</MEAN_MOTION_DOT><MEAN_MOTION_DDOT>0</MEAN_MOTION_DDOT></tleParameters></data></segment></body></omm>
<omm id="CCSDS_OMM_VERS" version="2.0">
<header><CREATION_DATE/><ORIGINATOR/></header><body><segment><metadata><OBJECT_NAME>KUIPER-00034</OBJECT_NAME><OBJECT_ID>2025-088Z</OBJECT_ID><CENTER_NAME>EARTH</CENTER_NAME><REF_FRAME>TEME</REF_FRAME><TIME_SYSTEM>UTC</TIME_SYSTEM><MEAN_ELEMENT_THEORY>SGP4</MEAN_ELEMENT_THEORY></metadata><data><meanElements><EPOCH>2025-08-12T09:37:10.080768</EPOCH><MEAN_MOTION>15.38389886</MEAN_MOTION><ECCENTRICITY>.0001377</ECCENTRICITY><INCLINATION>51.8715</INCLINATION><RA_OF_ASC_NODE>308.0663</RA_OF_ASC_NODE><ARG_OF_PERICENTER>94.7275</ARG_OF_PERICENTER><MEAN_ANOMALY>265.3870</MEAN_ANOMALY></meanElements><tleParameters><EPHEMERIS_TYPE>0</EPHEMERIS_TYPE><CLASSIFICATION_TYPE>U</CLASSIFICATION_TYPE><NORAD_CAT_ID>63747</NORAD_CAT_ID><ELEMENT_SET_NO>999</ELEMENT_SET_NO><REV_AT_EPOCH>1662</REV_AT_EPOCH><BSTAR>.43666E-3</BSTAR><MEAN_MOTION_DOT>.16434E-3</MEAN_MOTION_DOT><MEAN_MOTION_DDOT>0</MEAN_MOTION_DDOT></tleParameters></data></segment></body></omm>

</ndm>
